STARLINK-36279          
1 67193U 25304B   26003.14218911  .00008366  00000+0  93162-4 0  9995
2 67193  69.9994 347.0454 0013789 308.3396  51.6556 15.63101442  3885
STARLINK-36284          
1 67194U 25304C   26003.01399888  .00338141  00000+0  34980-2 0  9993
2 67194  70.0000 347.4020 0013336 293.7282  66.2511 15.63402595  3863
STARLINK-36291          
1 67195U 25304D   26003.07771936  .03455374  00000+0  30948-1 0  9998
2 67195  69.9988 347.2226 0015416 224.8809 135.1138 15.64086883  3874
STARLINK-36239          
1 67196U 25304E   26002.94956082 -.00692951  00000+0 -86696-2 0  9996
2 67196  69.9980 347.5750 0005143 287.9039  72.1592 15.61779177  3857
STARLINK-36283          
1 67197U 25304F   26003.26871005  .00127737  00000+0  13790-2 0  9992
2 67197  70.0003 346.6845 0014384 276.0044  83.9509 15.62961574  3903
STARLINK-36267          
1 67198U 25304G   26003.14119655  .02001324  00000+0  19116-1 0  9998
2 67198  69.9987 347.0414 0014546 311.4780  48.5162 15.63236181  3856
STARLINK-36268          
1 67199U 25304H   26002.75635470 -.00606662  00000+0 -72278-2 0  9998
2 67199  69.9963 348.1067 0003371 255.8391 104.2427 15.62782222  3822
STARLINK-36270          
1 67200U 25304J   26003.14018085  .01954876  00000+0  18783-1 0  9994
2 67200  69.9989 347.0372 0014076 326.7073  33.3233 15.63164040  3885
STARLINK-36262          
1 67201U 25304K   26003.01192995 -.00835154  00000+0 -10601-1 0  9993
2 67201  69.9992 347.3937 0003229 277.8191  82.2633 15.61481648  3864
STARLINK-36263          
1 67202U 25304L   26002.94751748 -.00809910  00000+0 -10297-1 0  9994
2 67202  69.9995 347.5703 0005259 309.6051  50.4676 15.61735314  3850
STARLINK-36224          
1 67203U 25304M   26002.94717182 -.00756894  00000+0 -95480-2 0  9999
2 67203  70.0005 347.5683 0003745 271.5347  88.5416 15.61785240  3853
STARLINK-36185          
1 67204U 25304N   26003.13902929 -.00017208  00000+0 -19804-3 0  9993
2 67204  70.0002 347.0339 0004701 316.3208  43.7611 15.61554629  3889
