CCSDS_OMM_VERS = 2.0
CREATION_DATE  = 
ORIGINATOR     = 

OBJECT_NAME    = STARLINK-36279
OBJECT_ID      = 2025-304B
CENTER_NAME    = EARTH
REF_FRAME      = TEME
TIME_SYSTEM    = UTC
MEAN_ELEMENT_THEORY = SGP/SGP4

EPOCH          = 2026-01-03T03:24:45.139104
MEAN_MOTION    = 15.63101442
ECCENTRICITY   = .00137893
INCLINATION    = 69.9994
RA_OF_ASC_NODE = 347.0454
ARG_OF_PERICENTER = 308.3396
MEAN_ANOMALY   = 51.6556

EPHEMERIS_TYPE = 0
CLASSIFICATION_TYPE = U
NORAD_CAT_ID   = 67193
ELEMENT_SET_NO = 999
REV_AT_EPOCH   = 388
BSTAR          = .93162448E-4
MEAN_MOTION_DOT = .8366E-4
MEAN_MOTION_DDOT = 0

CCSDS_OMM_VERS = 2.0
CREATION_DATE  = 
ORIGINATOR     = 

OBJECT_NAME    = STARLINK-36284
OBJECT_ID      = 2025-304C
CENTER_NAME    = EARTH
REF_FRAME      = TEME
TIME_SYSTEM    = UTC
MEAN_ELEMENT_THEORY = SGP/SGP4

EPOCH          = 2026-01-03T00:20:09.503232
MEAN_MOTION    = 15.63402595
ECCENTRICITY   = .00133361
INCLINATION    = 70.0000
RA_OF_ASC_NODE = 347.4020
ARG_OF_PERICENTER = 293.7282
MEAN_ANOMALY   = 66.2511

EPHEMERIS_TYPE = 0
CLASSIFICATION_TYPE = U
NORAD_CAT_ID   = 67194
ELEMENT_SET_NO = 999
REV_AT_EPOCH   = 386
BSTAR          = .34980448E-2
MEAN_MOTION_DOT = .338141E-2
MEAN_MOTION_DDOT = 0

CCSDS_OMM_VERS = 2.0
CREATION_DATE  = 
ORIGINATOR     = 

OBJECT_NAME    = STARLINK-36291
OBJECT_ID      = 2025-304D
CENTER_NAME    = EARTH
REF_FRAME      = TEME
TIME_SYSTEM    = UTC
MEAN_ELEMENT_THEORY = SGP/SGP4

EPOCH          = 2026-01-03T01:51:54.952704
MEAN_MOTION    = 15.64086883
ECCENTRICITY   = .00154161
INCLINATION    = 69.9988
RA_OF_ASC_NODE = 347.2226
ARG_OF_PERICENTER = 224.8809
MEAN_ANOMALY   = 135.1138

EPHEMERIS_TYPE = 0
CLASSIFICATION_TYPE = U
NORAD_CAT_ID   = 67195
ELEMENT_SET_NO = 999
REV_AT_EPOCH   = 387
BSTAR          = .30948024E-1
MEAN_MOTION_DOT = .3455374E-1
MEAN_MOTION_DDOT = 0

CCSDS_OMM_VERS = 2.0
CREATION_DATE  = 
ORIGINATOR     = 

OBJECT_NAME    = STARLINK-36239
OBJECT_ID      = 2025-304E
CENTER_NAME    = EARTH
REF_FRAME      = TEME
TIME_SYSTEM    = UTC
MEAN_ELEMENT_THEORY = SGP/SGP4

EPOCH          = 2026-01-02T22:47:22.054848
MEAN_MOTION    = 15.61779177
ECCENTRICITY   = .0005143
INCLINATION    = 69.9980
RA_OF_ASC_NODE = 347.5750
ARG_OF_PERICENTER = 287.9039
MEAN_ANOMALY   = 72.1592

EPHEMERIS_TYPE = 0
CLASSIFICATION_TYPE = U
NORAD_CAT_ID   = 67196
ELEMENT_SET_NO = 999
REV_AT_EPOCH   = 385
BSTAR          = -.86696E-2
MEAN_MOTION_DOT = -.692951E-2
MEAN_MOTION_DDOT = 0

CCSDS_OMM_VERS = 2.0
CREATION_DATE  = 
ORIGINATOR     = 

OBJECT_NAME    = STARLINK-36283
OBJECT_ID      = 2025-304F
CENTER_NAME    = EARTH
REF_FRAME      = TEME
TIME_SYSTEM    = UTC
MEAN_ELEMENT_THEORY = SGP/SGP4

EPOCH          = 2026-01-03T06:26:56.548320
MEAN_MOTION    = 15.62961574
ECCENTRICITY   = .00143845
INCLINATION    = 70.0003
RA_OF_ASC_NODE = 346.6845
ARG_OF_PERICENTER = 276.0044
MEAN_ANOMALY   = 83.9509

EPHEMERIS_TYPE = 0
CLASSIFICATION_TYPE = U
NORAD_CAT_ID   = 67197
ELEMENT_SET_NO = 999
REV_AT_EPOCH   = 390
BSTAR          = .13790239E-2
MEAN_MOTION_DOT = .127737E-2
MEAN_MOTION_DDOT = 0

CCSDS_OMM_VERS = 2.0
CREATION_DATE  = 
ORIGINATOR     = 

OBJECT_NAME    = STARLINK-36267
OBJECT_ID      = 2025-304G
CENTER_NAME    = EARTH
REF_FRAME      = TEME
TIME_SYSTEM    = UTC
MEAN_ELEMENT_THEORY = SGP/SGP4

EPOCH          = 2026-01-03T03:23:19.381920
MEAN_MOTION    = 15.63236181
ECCENTRICITY   = .00145462
INCLINATION    = 69.9987
RA_OF_ASC_NODE = 347.0414
ARG_OF_PERICENTER = 311.4780
MEAN_ANOMALY   = 48.5162

EPHEMERIS_TYPE = 0
CLASSIFICATION_TYPE = U
NORAD_CAT_ID   = 67198
ELEMENT_SET_NO = 999
REV_AT_EPOCH   = 385
BSTAR          = .19115515E-1
MEAN_MOTION_DOT = .2001324E-1
MEAN_MOTION_DDOT = 0

CCSDS_OMM_VERS = 2.0
CREATION_DATE  = 
ORIGINATOR     = 

OBJECT_NAME    = STARLINK-36268
OBJECT_ID      = 2025-304H
CENTER_NAME    = EARTH
REF_FRAME      = TEME
TIME_SYSTEM    = UTC
MEAN_ELEMENT_THEORY = SGP/SGP4

EPOCH          = 2026-01-02T18:09:09.046080
MEAN_MOTION    = 15.62782222
ECCENTRICITY   = .00033718
INCLINATION    = 69.9963
RA_OF_ASC_NODE = 348.1067
ARG_OF_PERICENTER = 255.8391
MEAN_ANOMALY   = 104.2427

EPHEMERIS_TYPE = 0
CLASSIFICATION_TYPE = U
NORAD_CAT_ID   = 67199
ELEMENT_SET_NO = 999
REV_AT_EPOCH   = 382
BSTAR          = -.72278126E-2
MEAN_MOTION_DOT = -.606662E-2
MEAN_MOTION_DDOT = 0

CCSDS_OMM_VERS = 2.0
CREATION_DATE  = 
ORIGINATOR     = 

OBJECT_NAME    = STARLINK-36270
OBJECT_ID      = 2025-304J
CENTER_NAME    = EARTH
REF_FRAME      = TEME
TIME_SYSTEM    = UTC
MEAN_ELEMENT_THEORY = SGP/SGP4

EPOCH          = 2026-01-03T03:21:51.625440
MEAN_MOTION    = 15.63164040
ECCENTRICITY   = .00140767
INCLINATION    = 69.9989
RA_OF_ASC_NODE = 347.0372
ARG_OF_PERICENTER = 326.7073
MEAN_ANOMALY   = 33.3233

EPHEMERIS_TYPE = 0
CLASSIFICATION_TYPE = U
NORAD_CAT_ID   = 67200
ELEMENT_SET_NO = 999
REV_AT_EPOCH   = 388
BSTAR          = .18782554E-1
MEAN_MOTION_DOT = .1954876E-1
MEAN_MOTION_DDOT = 0

CCSDS_OMM_VERS = 2.0
CREATION_DATE  = 
ORIGINATOR     = 

OBJECT_NAME    = STARLINK-36262
OBJECT_ID      = 2025-304K
CENTER_NAME    = EARTH
REF_FRAME      = TEME
TIME_SYSTEM    = UTC
MEAN_ELEMENT_THEORY = SGP/SGP4

EPOCH          = 2026-01-03T00:17:10.747680
MEAN_MOTION    = 15.61481648
ECCENTRICITY   = .00032294
INCLINATION    = 69.9992
RA_OF_ASC_NODE = 347.3937
ARG_OF_PERICENTER = 277.8191
MEAN_ANOMALY   = 82.2633

EPHEMERIS_TYPE = 0
CLASSIFICATION_TYPE = U
NORAD_CAT_ID   = 67201
ELEMENT_SET_NO = 999
REV_AT_EPOCH   = 386
BSTAR          = -.10600881E-1
MEAN_MOTION_DOT = -.835154E-2
MEAN_MOTION_DDOT = 0

CCSDS_OMM_VERS = 2.0
CREATION_DATE  = 
ORIGINATOR     = 

OBJECT_NAME    = STARLINK-36263
OBJECT_ID      = 2025-304L
CENTER_NAME    = EARTH
REF_FRAME      = TEME
TIME_SYSTEM    = UTC
MEAN_ELEMENT_THEORY = SGP/SGP4

EPOCH          = 2026-01-02T22:44:25.510272
MEAN_MOTION    = 15.61735314
ECCENTRICITY   = .0005259
INCLINATION    = 69.9995
RA_OF_ASC_NODE = 347.5703
ARG_OF_PERICENTER = 309.6051
MEAN_ANOMALY   = 50.4676

EPHEMERIS_TYPE = 0
CLASSIFICATION_TYPE = U
NORAD_CAT_ID   = 67202
ELEMENT_SET_NO = 999
REV_AT_EPOCH   = 385
BSTAR          = -.10297E-1
MEAN_MOTION_DOT = -.80991E-2
MEAN_MOTION_DDOT = 0

CCSDS_OMM_VERS = 2.0
CREATION_DATE  = 
ORIGINATOR     = 

OBJECT_NAME    = STARLINK-36224
OBJECT_ID      = 2025-304M
CENTER_NAME    = EARTH
REF_FRAME      = TEME
TIME_SYSTEM    = UTC
MEAN_ELEMENT_THEORY = SGP/SGP4

EPOCH          = 2026-01-02T22:43:55.645248
MEAN_MOTION    = 15.61785240
ECCENTRICITY   = .0003745
INCLINATION    = 70.0005
RA_OF_ASC_NODE = 347.5683
ARG_OF_PERICENTER = 271.5347
MEAN_ANOMALY   = 88.5416

EPHEMERIS_TYPE = 0
CLASSIFICATION_TYPE = U
NORAD_CAT_ID   = 67203
ELEMENT_SET_NO = 999
REV_AT_EPOCH   = 385
BSTAR          = -.9548E-2
MEAN_MOTION_DOT = -.756894E-2
MEAN_MOTION_DDOT = 0

CCSDS_OMM_VERS = 2.0
CREATION_DATE  = 
ORIGINATOR     = 

OBJECT_NAME    = STARLINK-36185
OBJECT_ID      = 2025-304N
CENTER_NAME    = EARTH
REF_FRAME      = TEME
TIME_SYSTEM    = UTC
MEAN_ELEMENT_THEORY = SGP/SGP4

EPOCH          = 2026-01-03T03:20:12.130656
MEAN_MOTION    = 15.61554629
ECCENTRICITY   = .00047016
INCLINATION    = 70.0002
RA_OF_ASC_NODE = 347.0339
ARG_OF_PERICENTER = 316.3208
MEAN_ANOMALY   = 43.7611

EPHEMERIS_TYPE = 0
CLASSIFICATION_TYPE = U
NORAD_CAT_ID   = 67204
ELEMENT_SET_NO = 999
REV_AT_EPOCH   = 388
BSTAR          = -.19804218E-3
MEAN_MOTION_DOT = -.17208E-3
MEAN_MOTION_DDOT = 0

